[
    {
        "Altitude(m)": 604983.052944507,
        "Argument of Periapsis(deg)": 0.0,
        "Eccentricity": 0.0,
        "Inclination(deg)": 60.0,
        "Latitude(deg)": -0.0926273058327159,
        "Longitude(deg)": -179.91608378711086,
        "Mean Anomaly(deg)": 180.0,
        "RAAN(deg)": 100.0,
        "Satellite Name": "Test1 451",
        "Satellite Number": 451,
        "Semi-Major Axis(m)": 6980739.136638005,
        "Time(s)": 0
    },
    {
        "Altitude(m)": 605055.3322651623,
        "Argument of Periapsis(deg)": 0.00010418945913296404,
        "Eccentricity": 0.0,
        "Inclination(deg)": 60.0,
        "Latitude(deg)": -0.6330377313152356,
        "Longitude(deg)": -179.64795997401941,
        "Mean Anomaly(deg)": 180.62010614546185,
        "RAAN(deg)": 99.99957995086025,
        "Satellite Name": "Test1 451",
        "Satellite Number": 451,
        "Semi-Major Axis(m)": 6980739.136638005,
        "Time(s)": 10
    }
]